[{"OBJECT_NAME":"STARLINK-2482","OBJECT_ID":"2021-027AZ","EPOCH":"2026-03-10T00:00:02.999808","MEAN_MOTION":15.1095975,"ECCENTRICITY":0.00018591,"INCLINATION":53.0699,"RA_OF_ASC_NODE":150.1994,"ARG_OF_PERICENTER":81.545,"MEAN_ANOMALY":87.9317,"EPHEMERIS_TYPE":0,"CLASSIFICATION_TYPE":"U","NORAD_CAT_ID":48139,"ELEMENT_SET_NO":999,"REV_AT_EPOCH":574,"BSTAR":0.0054693957,"MEAN_MOTION_DOT":0.00093207,"MEAN_MOTION_DDOT":0},{"OBJECT_NAME":"UNKNOWN","OBJECT_ID":"","EPOCH":"2026-03-09T02:36:17.309088","MEAN_MOTION":15.13289121,"ECCENTRICITY":0.0003206,"INCLINATION":86.685,"RA_OF_ASC_NODE":115.8978,"ARG_OF_PERICENTER":174.9548,"MEAN_ANOMALY":185.1725,"EPHEMERIS_TYPE":0,"CLASSIFICATION_TYPE":"U","NORAD_CAT_ID":81969,"ELEMENT_SET_NO":999,"REV_AT_EPOCH":45322,"BSTAR":0.00076162,"MEAN_MOTION_DOT":0.00013589,"MEAN_MOTION_DDOT":0}]
